[{"OBJECT_NAME":"ONEWEB-0707","OBJECT_ID":"2024-188U","EPOCH":"2026-03-09T22:53:54.268512","MEAN_MOTION":13.10372101,"ECCENTRICITY":0.00024588,"INCLINATION":87.8784,"RA_OF_ASC_NODE":56.0095,"ARG_OF_PERICENTER":81.2511,"MEAN_ANOMALY":278.8895,"EPHEMERIS_TYPE":0,"CLASSIFICATION_TYPE":"U","NORAD_CAT_ID":61612,"ELEMENT_SET_NO":999,"REV_AT_EPOCH":7032,"BSTAR":0.001892794,"MEAN_MOTION_DOT":6.73e-6,"MEAN_MOTION_DDOT":0},{"OBJECT_NAME":"PEGASUS DEB","OBJECT_ID":"1994-029AFL","EPOCH":"2026-02-24T04:13:22.463616","MEAN_MOTION":13.84237384,"ECCENTRICITY":0.05150588,"INCLINATION":81.5634,"RA_OF_ASC_NODE":226.3444,"ARG_OF_PERICENTER":247.4901,"MEAN_ANOMALY":107.0974,"EPHEMERIS_TYPE":0,"CLASSIFICATION_TYPE":"U","NORAD_CAT_ID":39913,"ELEMENT_SET_NO":999,"REV_AT_EPOCH":9996,"BSTAR":0.0023065412,"MEAN_MOTION_DOT":7.324e-5,"MEAN_MOTION_DDOT":0}]
